*******************************************************************************
Ephemeris / WWW_USER Wed Apr  4 23:38:26 2018 Pasadena, USA      / Horizons    
*******************************************************************************
Target body name: 4 Vesta                         {source: JPL#34}
Center body name: Solar System Barycenter (0)     {source: DE431}
Center-site name: BODY CENTER
*******************************************************************************
Start time      : A.D. 2000-Jan-01 00:00:00.0000 TDB
Stop  time      : A.D. 2010-Jan-01 00:00:00.0000 TDB
Step-size       : 7200 minutes
*******************************************************************************
Center geodetic : 0.00000000,0.00000000,0.0000000 {E-lon(deg),Lat(deg),Alt(km)}
Center cylindric: 0.00000000,0.00000000,0.0000000 {E-lon(deg),Dxy(km),Dz(km)}
Center radii    : (undefined)                                                  
Small perturbers: Yes                             {source: SB431-N16}
Output units    : AU-D                                                         
Output type     : GEOMETRIC cartesian states
Output format   : 2 (position and velocity)
Reference frame : ICRF/J2000.0                                                 
Coordinate systm: Ecliptic and Mean Equinox of Reference Epoch                 
*******************************************************************************
Initial IAU76/J2000 heliocentric ecliptic osculating elements (au, days, deg.):
  EPOCH=  2448953.5 ! 1992-Nov-27.00 (TDB)         Residual RMS= .50575        
   EC= .08940671368300425  QR= 2.149926234697652   TP= 2448965.6989691556      
   OM= 103.9831114166946   W=  150.0028930287553   IN= 7.135497649691238       
  Equivalent ICRF heliocentric equatorial cartesian coordinates (au, au/d):
   X=-7.262352986344842E-01  Y=-1.911310137901048E+00  Z=-6.659499008373883E-01
  VX= 1.145208333797262E-02 VY=-3.294506484840738E-03 VZ=-2.808133774681220E-03
Asteroid physical parameters (km, seconds, rotational period in hours):        
   GM= 17.8                RAD= 262.7              ROTPER= 5.342128            
   H= 3.2                  G= .320                 B-V= .782                   
                           ALBEDO= .4228           STYP= V                     
*******************************************************************************
JDTDB
   X     Y     Z
   VX    VY    VZ
*******************************************************************************
$$SOE
2453949.500000000 = A.D. 2006-Aug-02 00:00:00.0000 TDB 
  -2.167299417995170E+00  9.204237873207592E-01  2.359134057197493E-01
  -3.331874698273912E-03 -1.062551917723786E-02  7.244373529755959E-04
2453954.500000000 = A.D. 2006-Aug-07 00:00:00.0000 TDB 
  -2.183351405208540E+00  8.670450491664569E-01  2.394693630572634E-01
  -3.088365149274966E-03 -1.072508603005807E-02  6.978513383471161E-04
2453959.500000000 = A.D. 2006-Aug-12 00:00:00.0000 TDB 
  -2.198177600711785E+00  8.131819308506976E-01  2.428909834665722E-01
  -2.841574491694230E-03 -1.081925060204907E-02  6.707039613346354E-04
2453964.500000000 = A.D. 2006-Aug-17 00:00:00.0000 TDB 
  -2.211761850076766E+00  7.588617528938959E-01  2.461754813248501E-01
  -2.591603965320779E-03 -1.090788934860280E-02  6.430037970502967E-04
2453969.500000000 = A.D. 2006-Aug-22 00:00:00.0000 TDB 
  -2.224088517065047E+00  7.041124518626186E-01  2.493201153913767E-01
  -2.338559622633703E-03 -1.099087942587239E-02  6.147600261029014E-04
2453974.500000000 = A.D. 2006-Aug-27 00:00:00.0000 TDB 
  -2.235142507934053E+00  6.489625764077668E-01  2.523221918780442E-01
  -2.082552425250188E-03 -1.106809887552996E-02  5.859824517779871E-04
2453979.500000000 = A.D. 2006-Sep-01 00:00:00.0000 TDB 
  -2.244909296215020E+00  5.934412823562658E-01  2.551790676053194E-01
  -1.823698335935436E-03 -1.113942681851079E-02  5.566815170299167E-04
2453984.500000000 = A.D. 2006-Sep-06 00:00:00.0000 TDB 
  -2.253374947935468E+00  5.375783268119898E-01  2.578881532423682E-01
  -1.562118404019947E-03 -1.120474365766645E-02  5.268683211098849E-04
2453989.500000000 = A.D. 2006-Sep-11 00:00:00.0000 TDB 
  -2.260526147248952E+00  4.814040612191335E-01  2.604469166288605E-01
  -1.297938842833695E-03 -1.126393129030824E-02  4.965546355790915E-04
2453994.500000000 = A.D. 2006-Sep-16 00:00:00.0000 TDB 
  -2.266350222432686E+00  4.249494233370374E-01  2.628528861751228E-01
  -1.031291099551357E-03 -1.131687333102149E-02  4.657529196401533E-04
2453999.500000000 = A.D. 2006-Sep-21 00:00:00.0000 TDB 
  -2.270835172216023E+00  3.682459280769841E-01  2.651036543373178E-01
  -7.623119175714961E-04 -1.136345534386865E-02  4.344763348126437E-04
2454004.500000000 = A.D. 2006-Sep-26 00:00:00.0000 TDB 
  -2.273969692399483E+00  3.113256571564950E-01  2.671968811641460E-01
  -4.911433900409679E-04 -1.140356508310596E-02  4.027387588308292E-04
2454009.500000000 = A.D. 2006-Oct-01 00:00:00.0000 TDB 
  -2.275743202715276E+00  2.542212475290461E-01  2.691302979105581E-01
  -2.179330026403170E-04 -1.143709274234605E-02  3.705547985020191E-04
2454014.500000000 = A.D. 2006-Oct-06 00:00:00.0000 TDB 
  -2.276145873871851E+00  1.969658785460049E-01  2.709017107126148E-01
   5.716633576231011E-05 -1.146393121259041E-02  3.379398012740048E-04
2454019.500000000 = A.D. 2006-Oct-11 00:00:00.0000 TDB 
  -2.275168654719876E+00  1.395932578052792E-01  2.725090043166431E-01
   3.339962752455845E-04 -1.148397634956477E-02  3.049098653747612E-04
2454024.500000000 = A.D. 2006-Oct-16 00:00:00.0000 TDB 
  -2.272803299475370E+00  8.213760563976366E-02  2.739501458555020E-01
   6.123930198132320E-04 -1.149712725043118E-02  2.714818485266328E-04
2454029.500000000 = A.D. 2006-Oct-21 00:00:00.0000 TDB 
  -2.269042394936198E+00  2.463363819972542E-02  2.752231886650268E-01
   8.921873350569957E-04 -1.150328653936370E-02  2.376733753194743E-04
2454034.500000000 = A.D. 2006-Oct-26 00:00:00.0000 TDB 
  -2.263879387628387E+00 -3.288345091274032E-02  2.763262761341310E-01
   1.173204568624296E-03 -1.150236066093985E-02  2.035028433028283E-04
2454039.500000000 = A.D. 2006-Oct-31 00:00:00.0000 TDB 
  -2.257308610816791E+00 -9.037801049310099E-02  2.772576455820940E-01
   1.455264684181857E-03 -1.149426018007703E-02  1.689894277494732E-04
2454044.500000000 = A.D. 2006-Nov-05 00:00:00.0000 TDB 
  -2.249325311309749E+00 -1.478139530973495E-01  2.780156321560198E-01
   1.738182310077447E-03 -1.147890008735092E-02  1.341530849247847E-04
2454049.500000000 = A.D. 2006-Nov-10 00:00:00.0000 TDB 
  -2.239925675980714E+00 -2.051547779430701E-01  2.785986727404181E-01
   2.021766804140280E-03 -1.145620010879013E-02  9.901455362401609E-05
2454054.500000000 = A.D. 2006-Nov-15 00:00:00.0000 TDB 
  -2.229106857922635E+00 -2.623635953692816E-01  2.790053098696155E-01
   2.305822335968913E-03 -1.142608501950657E-02  6.359535472797719E-05
2454059.500000000 = A.D. 2006-Nov-20 00:00:00.0000 TDB 
  -2.216867002145333E+00 -3.194031528730699E-01  2.792341956325901E-01
   2.590147987515956E-03 -1.138848496070577E-02  2.791778859869673E-05
2454064.500000000 = A.D. 2006-Nov-25 00:00:00.0000 TDB 
  -2.203205270723998E+00 -3.762358627384518E-01  2.792840955592976E-01
   2.874537872032257E-03 -1.134333575940310E-02 -7.995069713853084E-06
2454069.500000000 = A.D. 2006-Nov-30 00:00:00.0000 TDB 
  -2.188121867306760E+00 -4.328238312678110E-01  2.791538924776039E-01
   3.158781271622863E-03 -1.129057924944717E-02 -4.411937744431517E-05
2454074.500000000 = A.D. 2006-Dec-05 00:00:00.0000 TDB 
  -2.171618060885423E+00 -4.891288896180074E-01  2.788425903296201E-01
   3.442662794706277E-03 -1.123016359209349E-02 -8.043053342180217E-05
2454079.500000000 = A.D. 2006-Dec-10 00:00:00.0000 TDB 
  -2.153696208725812E+00 -5.451126262354707E-01  2.783493179350326E-01
   3.725962554907305E-03 -1.116204359487975E-02 -1.169031900105421E-04
2454084.500000000 = A.D. 2006-Dec-15 00:00:00.0000 TDB 
  -2.134359778348509E+00 -6.007364208800007E-01  2.776733326876689E-01
   4.008456372024756E-03 -1.108618102814032E-02 -1.535112678943926E-04
2454089.500000000 = A.D. 2006-Dec-20 00:00:00.0000 TDB 
  -2.113613368450174E+00 -6.559614802237222E-01  2.768140241709749E-01
   4.289915994717729E-03 -1.100254493836437E-02 -1.902279737140466E-04
2454094.500000000 = A.D. 2006-Dec-25 00:00:00.0000 TDB 
  -2.091462728658338E+00 -7.107488750059089E-01  2.757709176783791E-01
   4.570109344381515E-03 -1.091111195687661E-02 -2.270258204616181E-04
2454099.500000000 = A.D. 2006-Dec-30 00:00:00.0000 TDB 
  -2.067914778013957E+00 -7.650595787154285E-01  2.745436776248548E-01
   4.848800780213015E-03 -1.081186660187331E-02 -2.638766506147008E-04
2454104.500000000 = A.D. 2007-Jan-04 00:00:00.0000 TDB 
  -2.042977622074927E+00 -8.188545077628182E-01  2.731321108357970E-01
   5.125751385820319E-03 -1.070480157194792E-02 -3.007516620945296E-04
2454109.500000000 = A.D. 2007-Jan-09 00:00:00.0000 TDB 
  -2.016660568532120E+00 -8.720945630952395E-01  2.715361696988314E-01
   5.400719277620873E-03 -1.058991802945351E-02 -3.376214371492189E-04
2454114.500000000 = A.D. 2007-Jan-14 00:00:00.0000 TDB 
  -1.988974141229008E+00 -9.247406731995280E-01  2.697559551637547E-01
   5.673459934982222E-03 -1.046722587210984E-02 -3.744559742246195E-04
2454119.500000000 = A.D. 2007-Jan-19 00:00:00.0000 TDB 
  -1.959930092476766E+00 -9.767538384304951E-01  2.677917195755980E-01
   5.943726551819890E-03 -1.033674399121762E-02 -4.112247228459401E-04
2454124.500000000 = A.D. 2007-Jan-24 00:00:00.0000 TDB 
  -1.929541413558683E+00 -1.028095176593284E+00  2.656438693257584E-01
   6.211270409193376E-03 -1.019850051478017E-02 -4.478966215057058E-04
2454129.500000000 = A.D. 2007-Jan-29 00:00:00.0000 TDB 
  -1.897822343320295E+00 -1.078725969699979E+00  2.633129673062183E-01
   6.475841268309458E-03 -1.005253303378805E-02 -4.844401385362562E-04
